     2              NAVIGATION DATA                         RINEX VERSION / TYPE
CCRINEXN V1.6.0 UX  CDDIS               21-NOV-24 05:53     PGM / RUN BY / DATE 
IGS BROADCAST EPHEMERIS FILE                                COMMENT             
    0.2887D-07  0.0000D+00 -0.1192D-06  0.1788D-06          ION ALPHA           
    0.1434D+06 -0.1475D+06  0.0000D+00 -0.1311D+06          ION BETA            
    0.931322574616D-09-0.177635683940D-14   589824     2341 DELTA-UTC: A0,A1,T,W
    18                                                      LEAP SECONDS        
                                                            END OF HEADER       
 3 24 11 21  2  0  0.0 0.605267006904D-03 0.989075488178D-11 0.000000000000D+00
    0.800000000000D+02-0.609062500000D+02 0.402052461384D-08-0.850991091538D+00
   -0.325031578541D-05 0.566192052793D-02 0.391155481338D-05 0.515362722969D+04
    0.352800000000D+06-0.558793544769D-07-0.582083927046D-01 0.158324837685D-06
    0.987349853942D+00 0.317625000000D+03 0.115649954620D+01-0.808819404861D-08
   -0.165364030933D-09 0.100000000000D+01 0.234100000000D+04 0.000000000000D+00
    0.282842707634D+01 0.000000000000D+00 0.139698386192D-08 0.800000000000D+02
    0.349791000000D+06 0.400000000000D+01 0.000000000000D+00 0.000000000000D+00
 5 24 11 21  2  0  0.0-0.193630810827D-03-0.113686837722D-11 0.000000000000D+00
    0.116000000000D+03-0.594687500000D+02 0.421338979031D-08 0.282530501915D+01
   -0.304169952869D-05 0.568454386666D-02 0.373460352421D-05 0.515370637321D+04
    0.352800000000D+06 0.819563865662D-07-0.111838031760D+00-0.558793544769D-07
    0.974221947477D+00 0.313531250000D+03 0.133427996504D+01-0.798961851397D-08
   -0.144291724615D-09 0.100000000000D+01 0.234100000000D+04 0.000000000000D+00
    0.200000000000D+01 0.000000000000D+00-0.107102096081D-07 0.116000000000D+03
    0.345618000000D+06 0.400000000000D+01 0.000000000000D+00 0.000000000000D+00
 6 24 11 21  2  0  0.0-0.130525324494D-03-0.295585778076D-10 0.000000000000D+00
    0.490000000000D+02 0.508437500000D+02 0.392480634108D-08 0.602201454211D+00
    0.253319740295D-05 0.329792744014D-02 0.467151403427D-05 0.515373547936D+04
    0.352800000000D+06-0.149011611938D-07-0.109385986345D+01-0.521540641785D-07
    0.989263554135D+00 0.304718750000D+03-0.768536404306D+00-0.793068748782D-08
   -0.239295681911D-10 0.100000000000D+01 0.234100000000D+04 0.000000000000D+00
    0.200000000000D+01 0.000000000000D+00 0.372529029846D-08 0.490000000000D+02
    0.350899000000D+06 0.400000000000D+01 0.000000000000D+00 0.000000000000D+00
 7 24 11 21  2  0  0.0-0.190082937479D-04 0.193267624127D-11 0.000000000000D+00
    0.390000000000D+02-0.362500000000D+01 0.495306345783D-08-0.270038133292D+00
   -0.149011611938D-07 0.188463209197D-01 0.807456672192D-05 0.515358453178D+04
    0.352800000000D+06-0.521540641785D-07 0.203032585268D+01 0.268220901489D-06
    0.950032399543D+00 0.223125000000D+03-0.209303207919D+01-0.841785063727D-08
    0.354300472323D-09 0.100000000000D+01 0.234100000000D+04 0.000000000000D+00
    0.200000000000D+01 0.000000000000D+00-0.107102096081D-07 0.390000000000D+02
    0.345674000000D+06 0.400000000000D+01 0.000000000000D+00 0.000000000000D+00
 8 24 11 21  2  0  0.0 0.418992247432D-03 0.100044417195D-10 0.000000000000D+00
    0.520000000000D+02 0.737187500000D+02 0.472519682341D-08 0.250934501398D+01
    0.381842255592D-05 0.999274314381D-02 0.927969813347D-05 0.515371547890D+04
    0.352800000000D+06-0.245869159698D-06-0.219641624823D+01-0.119209289551D-06
    0.950521632996D+00 0.194718750000D+03 0.380901860149D+00-0.793175896103D-08
   -0.224652214809D-09 0.100000000000D+01 0.234100000000D+04 0.000000000000D+00
    0.200000000000D+01 0.000000000000D+00 0.465661287308D-08 0.520000000000D+02
    0.345675000000D+06 0.400000000000D+01 0.000000000000D+00 0.000000000000D+00
 9 24 11 21  2  0  0.0 0.452919863164D-03 0.170530256582D-10 0.000000000000D+00
    0.560000000000D+02-0.783437500000D+02 0.427946397114D-08 0.304617409836D+01
   -0.393576920033D-05 0.318831519689D-02 0.854581594467D-05 0.515356392860D+04
    0.352800000000D+06-0.130385160446D-07 0.957337157667D+00-0.242143869400D-07
    0.959866189000D+00 0.215937500000D+03 0.201441981505D+01-0.780103923031D-08
    0.132148361653D-09 0.100000000000D+01 0.234100000000D+04 0.000000000000D+00
    0.200000000000D+01 0.000000000000D+00 0.465661287308D-09 0.560000000000D+02
    0.345618000000D+06 0.400000000000D+01 0.000000000000D+00 0.000000000000D+00
10 24 11 21  2  0  0.0-0.203702133149D-03-0.146656020661D-10 0.000000000000D+00
    0.590000000000D+02-0.783750000000D+02 0.385051753237D-08-0.181709491014D+01
   -0.404566526413D-05 0.997520529199D-02 0.400282442570D-05 0.515368683433D+04
    0.352800000000D+06 0.782310962677D-07-0.607407463245D-01-0.130385160446D-06
    0.986982712706D+00 0.315781250000D+03-0.235698206384D+01-0.781211112007D-08
   -0.950039572962D-10 0.100000000000D+01 0.234100000000D+04 0.000000000000D+00
    0.200000000000D+01 0.000000000000D+00 0.232830643654D-08 0.590000000000D+02
    0.345675000000D+06 0.400000000000D+01 0.000000000000D+00 0.000000000000D+00
11 24 11 21  2  0  0.0-0.750869046897D-03-0.136424205266D-11 0.000000000000D+00
    0.114000000000D+03 0.469062500000D+02 0.442232706482D-08 0.160246035476D+01
    0.248476862907D-05 0.176884268876D-02 0.421330332756D-05 0.515357861328D+04
    0.352800000000D+06-0.745058059692D-07-0.106473900885D+01 0.614672899246D-07
    0.965931789679D+00 0.302718750000D+03-0.239280911925D+01-0.820141305035D-08
   -0.117862052285D-10 0.100000000000D+01 0.234100000000D+04 0.000000000000D+00
    0.200000000000D+01 0.000000000000D+00-0.884756445885D-08 0.626000000000D+03
    0.351486000000D+06 0.400000000000D+01 0.000000000000D+00 0.000000000000D+00
13 24 11 21  2  0  0.0 0.686862971634D-03 0.147792889038D-11 0.000000000000D+00
    0.710000000000D+02-0.619375000000D+02 0.397945147441D-08 0.219814305186D+01
   -0.331364572048D-05 0.878306420054D-02 0.896491110325D-05 0.515369258881D+04
    0.352800000000D+06-0.931322574616D-08 0.112592184463D+01-0.173225998878D-06
    0.972293866799D+00 0.213125000000D+03 0.974033779639D+00-0.767317676147D-08
    0.248581783001D-09 0.100000000000D+01 0.234100000000D+04 0.000000000000D+00
    0.200000000000D+01 0.000000000000D+00-0.116415321827D-07 0.710000000000D+02
    0.345676000000D+06 0.400000000000D+01 0.000000000000D+00 0.000000000000D+00
14 24 11 21  2  0  0.0 0.544120091945D-03 0.795807864051D-11 0.000000000000D+00
    0.240000000000D+02 0.150000000000D+02 0.507664003386D-08-0.114740191321D+01
    0.737607479095D-06 0.502867763862D-02 0.710599124432D-05 0.515369359207D+04
    0.352800000000D+06 0.707805156708D-07 0.309904586539D+01-0.335276126862D-07
    0.944971318877D+00 0.231968750000D+03-0.285890569317D+01-0.819498421113D-08
   -0.120719314158D-09 0.100000000000D+01 0.234100000000D+04 0.000000000000D+00
    0.200000000000D+01 0.000000000000D+00-0.791624188423D-08 0.792000000000D+03
    0.345677000000D+06 0.400000000000D+01 0.000000000000D+00 0.000000000000D+00
15 24 11 21  2  0  0.0 0.230234581977D-03 0.454747350886D-11 0.000000000000D+00
    0.730000000000D+02-0.836562500000D+02 0.488627496154D-08 0.149530933844D+01
   -0.464729964733D-05 0.161639837315D-01 0.837258994579D-05 0.515373036385D+04
    0.352800000000D+06-0.150874257088D-06 0.824895823628D+00-0.355765223503D-06
    0.937109310387D+00 0.210250000000D+03 0.137784269426D+01-0.827177312398D-08
    0.996470078407D-10 0.100000000000D+01 0.234100000000D+04 0.000000000000D+00
    0.200000000000D+01 0.000000000000D+00-0.102445483208D-07 0.730000000000D+02
    0.345678000000D+06 0.400000000000D+01 0.000000000000D+00 0.000000000000D+00
16 24 11 21  2  0  0.0-0.123114325106D-03 0.977706804406D-11 0.000000000000D+00
    0.140000000000D+02 0.169375000000D+02 0.466662295501D-08-0.278652075823D+01
    0.551342964172D-06 0.142487973208D-01 0.791437923908D-05 0.515364803505D+04
    0.352800000000D+06 0.122934579849D-06-0.311928992180D+01-0.245869159698D-06
    0.961050858597D+00 0.227125000000D+03 0.854564418164D+00-0.776603777236D-08
   -0.168578450541D-09 0.100000000000D+01 0.234100000000D+04 0.000000000000D+00
    0.200000000000D+01 0.000000000000D+00-0.102445500000D-07 0.140000000000D+02
    0.345660000000D+06 0.400000000000D+01 0.000000000000D+00 0.000000000000D+00
17 24 11 21  2  0  0.0 0.550704076886D-03-0.148929757415D-10 0.000000000000D+00
    0.520000000000D+02 0.691875000000D+02 0.429767901558D-08 0.244971221891D+01
    0.370107591152D-05 0.135016844142D-01 0.819936394691D-05 0.515358152008D+04
    0.352800000000D+06 0.167638063431D-06-0.209890507646D+01-0.223517417908D-07
    0.966252301864D+00 0.218812500000D+03-0.126849859696D+01-0.768103423162D-08
   -0.313941648358D-09 0.100000000000D+01 0.234100000000D+04 0.000000000000D+00
    0.200000000000D+01 0.000000000000D+00-0.111758708954D-07 0.520000000000D+02
    0.345679000000D+06 0.400000000000D+01 0.000000000000D+00 0.000000000000D+00
18 24 11 21  2  0  0.0-0.660507939756D-03-0.227373675443D-12 0.000000000000D+00
    0.840000000000D+02 0.603125000000D+02 0.432232289924D-08 0.472646979804D+00
    0.308267772198D-05 0.480304076336D-02 0.368058681488D-05 0.515372592163D+04
    0.352800000000D+06 0.689178705216D-07-0.109230614351D+01 0.279396772385D-07
    0.974147692682D+00 0.312093750000D+03-0.294466971468D+01-0.818569811004D-08
   -0.500020827874D-10 0.100000000000D+01 0.234100000000D+04 0.000000000000D+00
    0.200000000000D+01 0.000000000000D+00-0.838190300000D-08 0.840000000000D+02
    0.345660000000D+06 0.400000000000D+01 0.000000000000D+00 0.000000000000D+00
